ONEWEB-0525             
1 54143U 22138AG  23277.55751611  .00000071  00000+0  14531-3 0  9999
2 54143  87.9229 141.3422 0002117  78.0836 282.0534 13.19727044 46693
ONEWEB-0526             
1 54144U 22138AH  23277.59067627  .00000109  00000+0  23931-3 0  9997
2 54144  87.9224 141.3356 0001846  74.2181 285.9155 13.19724672 46677
ONEWEB-0529             
1 54145U 22138AJ  23277.59382640  .00000084  00000+0  17699-3 0  9999
2 54145  87.9225 141.3334 0002153  75.1098 285.0273 13.19728305 46695
ONEWEB-0531             
1 54146U 22138AK  23277.57659296  .00000122  00000+0  26821-3 0  9992
2 54146  87.9194 110.8244 0000786  52.7002 307.4203 13.20770455 49070
ONEWEB-0535             
1 54147U 22138AL  23277.32375410 -.00000009  00000+0 -53643-4 0  9998
2 54147  87.9225 141.3880 0001402  82.1305 277.9987 13.19726384 46673
ONEWEB-0536             
1 54148U 22138AM  23277.56394419  .00000104  00000+0  22342-3 0  9990
2 54148  87.9197 110.8767 0000735 115.3714 244.7495 13.20771035 49065
GSLV R/B                
1 54149U 22138AN  23277.54084191  .00004369  00000+0  45920-3 0  9996
2 54149  87.3759 102.4143 0026736 115.8058 244.5932 14.88966694 51579
ONEWEB-0527             
1 54642U 22166A   23277.46841979 -.00000291  00000+0 -73504-3 0  9992
2 54642  87.9160  80.4607 0001588  85.9512 274.1803 13.21818568 41183
